STARLINK-32700          
1 62311U 24239L   26068.63265652  .00033323  00000+0  11327-2 0  9999
2 62311  53.1610 181.5169 0001212  59.4537 300.6583 15.30183799 69546
TEVEL2-2                
1 63219U 25052K   26068.64848259  .00020339  00000+0  69428-3 0  9991
2 63219  97.3987 324.7700 0004693 105.7930 254.3828 15.30343745 54855
